NORAD_CAT_ID,OBJECT_NAME,OBJECT_TYPE,EPOCH,MEAN_MOTION,ECCENTRICITY,INCLINATION,RA_OF_ASC_NODE,ARG_OF_PERICENTER,MEAN_ANOMALY,BSTAR,MEAN_MOTION_DOT,MEAN_MOTION_DDOT,TLE_LINE0,TLE_LINE1,TLE_LINE2,SEMIMAJOR_AXIS,PERIOD,APOGEE,PERIGEE,DECAYED
53728.0,STARLINK-4640,PAYLOAD,2022-10-15 14:00:01,15.73213048,0.0001309,53.2138,72.7648,56.5678,108.4831,-0.00023728,-0.00033805,0.0,0 STARLINK-4640,1 53728U 22107AE  22288.58334491 -.00033805  00000-0 -23728-3 0  9992,2 53728  53.2138  72.7648 0001309  56.5678 108.4831 15.73213048  1306,6727.858,91.532,350.60400000000016,348.842,0.0
53728.0,STARLINK-4640,PAYLOAD,2022-10-15 22:00:01,15.7318304,0.0001437,53.2136,71.1162,48.0299,205.9713,-5.3517e-06,-1.3699999999999998e-05,0.0,0 STARLINK-4640,1 53728U 22107AE  22288.91668981 -.00001370  00000-0 -53517-5 0  9996,2 53728  53.2136  71.1162 0001437  48.0299 205.9713 15.73183040  1305,6727.944,91.534,350.775,348.842,0.0
53728.0,STARLINK-4640,PAYLOAD,2022-10-16 14:00:01,15.73194854,0.0001688,53.2136,67.8167,56.2134,15.5373,0.00017528,0.00024044,0.0,0 STARLINK-4640,1 53728U 22107AE  22289.58334491  .00024044  00000-0  17528-3 0  9997,2 53728  53.2136  67.8167 0001688  56.2134  15.5373 15.73194854  6632,6727.91,91.533,350.911,348.639,0.0
53728.0,STARLINK-4640,PAYLOAD,2022-10-16 22:00:00,15.73229937,0.0001701,53.2143,66.1675,48.0134,112.6658,-1.397e-05,-2.583e-05,0.0,0 STARLINK-4640,1 53728U 22107AE  22289.91667824 -.00002583  00000-0 -13970-4 0  9997,2 53728  53.2143  66.1675 0001701  48.0134 112.6658 15.73229937  1306,6727.81,91.531,350.819,348.53,0.0
53728.0,STARLINK-4640,PAYLOAD,2022-10-17 06:00:00,15.7365705,0.0001145,53.215,64.5141,48.1225,201.8185,-0.0098731,-0.01268627,0.0,0 STARLINK-4640,1 53728U 22107AE  22290.25001157 -.01268627  00000-0 -98731-2 0  9997,2 53728  53.2150  64.5141 0001145  48.1225 201.8185 15.73657050  6748,6726.592,91.507,349.228,347.68699999999984,0.0
53728.0,STARLINK-4640,PAYLOAD,2022-10-17 14:00:01,15.72686465,0.0001483,53.2167,62.8656,41.6176,297.2248,-0.0024181,-0.00320277,0.0,0 STARLINK-4640,1 53728U 22107AE  22290.58334491 -.00320277  00000-0 -24181-2 0  9990,2 53728  53.2167  62.8656 0001483  41.6176 297.2248 15.72686465  6791,6729.36,91.563,352.223,350.227,0.0
53728.0,STARLINK-4640,PAYLOAD,2022-10-17 22:00:00,15.72316234,0.0001771999999999,53.2168,61.219,31.4387,35.6856,-0.0073979,-0.00899297,0.0,0 STARLINK-4640,1 53728U 22107AE  22290.91667824 -.00899297  00000-0 -73979-2 0  9998,2 53728  53.2168  61.2190 0001772  31.4387  35.6856 15.72316234  6849,6730.416,91.585,353.474,351.088,0.0
53728.0,STARLINK-4640,PAYLOAD,2022-10-18 08:00:01,15.71450806,0.0001623,53.2176,59.158,34.9801,231.3599,-0.0096376,-0.01121405,0.0,0 STARLINK-4640,1 53728U 22107AE  22291.33334491 -.01121405  00000-0 -96376-2 0  9992,2 53728  53.2176  59.1580 0001623  34.9801 231.3599 15.71450806  6911,6732.887,91.635,355.845,353.659,0.0
53728.0,STARLINK-4640,PAYLOAD,2022-10-18 14:00:01,15.70842574,0.0001521999999999,53.2171,57.9263,40.0058,201.1698,-0.0099152999999999,-0.01123953,0.0,0 STARLINK-4640,1 53728U 22107AE  22291.58334491 -.01123953  00000-0 -99153-2 0  9995,2 53728  53.2171  57.9263 0001522  40.0058 201.1698 15.70842574  1309,6734.625,91.671,357.515,355.465,0.0
53728.0,STARLINK-4640,PAYLOAD,2022-10-18 22:00:00,15.70037208,0.0001815,53.2164,56.284,25.9938,300.7719,-0.010371,-0.01135123,0.0,0 STARLINK-4640,1 53728U 22107AE  22291.91667824 -.01135123  00000-0 -10371-1 0  9997,2 53728  53.2164  56.2840 0001815  25.9938 300.7719 15.70037208  1308,6736.928000000001,91.718,360.015,357.57,0.0
53728.0,STARLINK-4640,PAYLOAD,2022-10-19 06:00:00,15.69211993,0.0001705,53.2172,54.64100000000001,27.1563,24.2328,-0.010579,-0.01120287,0.0,0 STARLINK-4640,1 53728U 22107AE  22292.25001157 -.01120287  00000-0 -10579-1 0  9991,2 53728  53.2172  54.6410 0001705  27.1563  24.2328 15.69211993  7053,6739.2890000000025,91.766,362.30300000000005,360.005,0.0
53728.0,STARLINK-4640,PAYLOAD,2022-10-19 14:00:01,15.68397958,0.0001918,53.2172,53.0041,30.4282,104.5982,-0.010923,-0.01118539,0.0,0 STARLINK-4640,1 53728U 22107AE  22292.58334491 -.01118539  00000-0 -10923-1 0  9997,2 53728  53.2172  53.0041 0001918  30.4282 104.5982 15.68397958  1302,6741.621,91.813,364.779,362.193,0.0
53728.0,STARLINK-4640,PAYLOAD,2022-10-19 22:00:00,15.67586872,0.0001530999999999,53.2171,51.3672,42.5522,175.1341,-0.011342,-0.01141002,0.0,0 STARLINK-4640,1 53728U 22107AE  22292.91667824 -.01141002  00000-0 -11342-1 0  9990,2 53728  53.2171  51.3672 0001531  42.5522 175.1341 15.67586872  7161,6743.946,91.861,366.844,364.779,0.0
53728.0,STARLINK-4640,PAYLOAD,2022-10-20 14:00:01,15.65959029,0.0001441999999999,53.2175,48.0995,38.5168,341.5572,-0.012101,-0.01139302,0.0,0 STARLINK-4640,1 53728U 22107AE  22293.58334491 -.01139302  00000-0 -12101-1 0  9999,2 53728  53.2175  48.0995 0001442  38.5168 341.5572 15.65959029  1309,6748.619000000002,91.956,371.457,369.511,0.0
53728.0,STARLINK-4640,PAYLOAD,2022-10-20 22:00:00,15.6514402,0.0001548,53.2172,46.4682,38.2362,61.5659,-0.012475,-0.01136811,0.0,0 STARLINK-4640,1 53728U 22107AE  22293.91667824 -.01136811  00000-0 -12475-1 0  9991,2 53728  53.2172  46.4682 0001548  38.2362  61.5659 15.65144020  1303,6750.962,92.004,373.872,371.782,0.0
53728.0,STARLINK-4640,PAYLOAD,2022-10-21 14:00:01,15.6351565,0.000156,53.2173,43.2129,42.7207,213.602,-0.013294,-0.01135322,0.0,0 STARLINK-4640,1 53728U 22107AE  22294.58334491 -.01135322  00000-0 -13294-1 0  9992,2 53728  53.2173  43.2129 0001560  42.7207 213.6020 15.63515650  1308,6755.648,92.1,378.567,376.459,0.0
53728.0,STARLINK-4640,PAYLOAD,2022-10-21 22:00:00,15.62722773,0.0001564999999999,53.2164,41.5876,29.5084,303.5984,-0.014098,-0.01163799,0.0,0 STARLINK-4640,1 53728U 22107AE  22294.91667824 -.01163799  00000-0 -14098-1 0  9990,2 53728  53.2164  41.5876 0001565  29.5084 303.5984 15.62722773  1302,6757.933000000001,92.147,380.856,378.74,0.0
53728.0,STARLINK-4640,PAYLOAD,2022-10-22 06:00:00,15.61887396,0.0001592,53.2173,39.9628,32.9058,16.0277,-0.01415,-0.01133534,0.0,0 STARLINK-4640,1 53728U 22107AE  22295.25001157 -.01133534  00000-0 -14150-1 0  9992,2 53728  53.2173  39.9628 0001592  32.9058  16.0277 15.61887396  7520,6760.342,92.196,383.284,381.131,0.0
53728.0,STARLINK-4640,PAYLOAD,2022-10-22 14:00:01,15.61077096,0.000166,53.217,38.3437,43.4076,80.3612,-0.014665,-0.0113782,0.0,0 STARLINK-4640,1 53728U 22107AE  22295.58334491 -.01137820  00000-0 -14665-1 0  9991,2 53728  53.2170  38.3437 0001660  43.4076  80.3612 15.61077096  1306,6762.682,92.244,385.669,383.424,0.0
53728.0,STARLINK-4640,PAYLOAD,2022-10-22 22:00:00,15.60278211,0.0001886999999999,53.2168,36.7242,31.7649,165.858,-0.015441,-0.01159305,0.0,0 STARLINK-4640,1 53728U 22107AE  22295.91667824 -.01159305  00000-0 -15441-1 0  9992,2 53728  53.2168  36.7242 0001887  31.7649 165.8580 15.60278211  1300,6764.99,92.291,388.131,385.578,0.0
53728.0,STARLINK-4640,PAYLOAD,2022-10-23 14:00:01,15.58648152,0.0001217999999999,53.2173,33.4925,28.3569,314.0526,-0.016356,-0.01153852,0.0,0 STARLINK-4640,1 53728U 22107AE  22296.58334491 -.01153852  00000-0 -16356-1 0  9994,2 53728  53.2173  33.4925 0001218  28.3569 314.0526 15.58648152  1309,6769.706,92.388,392.395,390.746,0.0
53728.0,STARLINK-4640,PAYLOAD,2022-10-23 22:00:00,15.57828629,0.000153,53.2166,31.8787,35.8676,17.4717,-0.016743,-0.01145897,0.0,0 STARLINK-4640,1 53728U 22107AE  22296.91667824 -.01145897  00000-0 -16743-1 0  9990,2 53728  53.2166  31.8787 0001530  35.8676  17.4717 15.57828629  7780,6772.08,92.436,394.981,392.908,0.0
53728.0,STARLINK-4640,PAYLOAD,2022-10-24 14:00:01,15.56213357,0.0001484,53.217,28.6591,55.4337,136.8183,-0.018055,-0.01161131,0.0,0 STARLINK-4640,1 53728U 22107AE  22297.58334491 -.01161131  00000-0 -18055-1 0  9992,2 53728  53.2170  28.6591 0001484  55.4337 136.8183 15.56213357  1302,6776.765,92.532,399.636,397.624,0.0
53728.0,STARLINK-4640,PAYLOAD,2022-10-24 22:00:00,15.55382062,0.0001431999999999,53.2169,27.051,49.1178,211.1365,-0.018223,-0.01138554,0.0,0 STARLINK-4640,1 53728U 22107AE  22297.91667824 -.01138554  00000-0 -18223-1 0  9998,2 53728  53.2169  27.0510 0001432  49.1178 211.1365 15.55382062  7944,6779.179,92.582,402.015,400.073,0.0
53728.0,STARLINK-4640,PAYLOAD,2022-10-25 14:00:01,15.53755759,0.0001385,53.2173,23.8432,46.418,346.8873,-0.019365,-0.01139286,0.0,0 STARLINK-4640,1 53728U 22107AE  22298.58334491 -.01139286  00000-0 -19365-1 0  9994,2 53728  53.2173  23.8432 0001385  46.4180 346.8873 15.53755759  1305,6783.909000000002,92.679,406.713,404.834,0.0
53728.0,STARLINK-4640,PAYLOAD,2022-10-25 22:00:01,15.52956623,0.0001591,53.217,22.2408,37.1396,61.2835,-0.020309,-0.01158381,0.0,0 STARLINK-4640,1 53728U 22107AE  22298.91668981 -.01158381  00000-0 -20309-1 0  9992,2 53728  53.2170  22.2408 0001591  37.1396  61.2835 15.52956623  8106,6786.236,92.726,409.181,407.021,0.0
53728.0,STARLINK-4640,PAYLOAD,2022-10-26 14:00:01,15.51319955,0.0001488,53.2173,19.0451,52.5786,172.9686,-0.021319,-0.01147113,0.0,0 STARLINK-4640,1 53728U 22107AE  22299.58334491 -.01147113  00000-0 -21319-1 0  9995,2 53728  53.2173  19.0451 0001488  52.5786 172.9686 15.51319955  1309,6791.0080000000025,92.824,413.884,411.86300000000006,0.0
53728.0,STARLINK-4640,PAYLOAD,2022-10-26 22:00:00,15.50367419,0.0001274999999999,53.2175,17.4483,55.9508,231.7428,-0.01077,-0.00578415,0.0,0 STARLINK-4640,1 53728U 22107AE  22299.91667824 -.00578415  00000-0 -10770-1 0  9992,2 53728  53.2175  17.4483 0001275  55.9508 231.7428 15.50367419  8257,6793.7890000000025,92.881,416.521,414.788,0.0
53728.0,STARLINK-4640,PAYLOAD,2022-10-27 08:00:01,15.49979547,0.0001867,53.2145,15.4563,54.0289,40.1139,-0.0019501999999999,-0.00109969,0.0,0 STARLINK-4640,1 53728U 22107AE  22300.33334491 -.00109969  00000-0 -19502-2 0  9999,2 53728  53.2145  15.4563 0001867  54.0289  40.1139 15.49979547  8322,6794.9230000000025,92.904,418.056,415.519,0.0
